<map id="G" name="G">
<area shape="rect" id="node3" href="$class_moon_illum_sim_1_1tools.html#a0d2b5456cd14236f4590076c606adcad" title="MoonIllumSim.tools.output_header" alt="" coords="287,385,510,412"/>
<area shape="rect" id="node5" href="$class_moon_illum_sim_1_1tools.html#ad1908efaba72839671350b58c09c906e" title="MoonIllumSim.tools.parse_arguments" alt="" coords="279,436,519,463"/>
<area shape="rect" id="node40" href="$class_moon_illum_sim_1_1_simulation.html#acab89983b290524651f29947adcb64a2" title="MoonIllumSim.Simulation.checkConfig" alt="" coords="277,816,521,843"/>
<area shape="rect" id="node44" href="$class_moon_illum_sim_1_1tools.html#a8b6ce1fd51b218dc78553e10219c292e" title="MoonIllumSim.tools.display_help" alt="" coords="293,867,505,893"/>
<area shape="rect" id="node46" href="$class_moon_illum_sim_1_1tools.html#ad38a68debf09f80a794457777147c521" title="MoonIllumSim.tools.output_configuration_overview" alt="" coords="243,1449,554,1476"/>
<area shape="rect" id="node101" href="$class_moon_illum_sim_1_1_simulation.html#a720e130013ad25c3d8884a7a5d5e6227" title="MoonIllumSim.Simulation.doCalculations" alt="" coords="269,1829,528,1856"/>
<area shape="rect" id="node7" href="$class_moon_illum_sim_1_1tools.html#a3bbb98511084ab79d5e162083d6e53d8" title="MoonIllumSim.tools.getNextArg" alt="" coords="681,5,887,32"/>
<area shape="rect" id="node9" href="$class_moon_illum_sim_1_1_simulation.html#a8dd4266adfecc86ad28316e8e474e2c3" title="MoonIllumSim.Simulation.setSimulationTime" alt="" coords="644,56,924,83"/>
<area shape="rect" id="node11" href="$class_moon_illum_sim_1_1tools.html#ab1c2a377b38a6d9c0bb95ff5d7da0721" title="MoonIllumSim.tools.parse_numeric_list" alt="" coords="659,107,909,133"/>
<area shape="rect" id="node13" href="$class_moon_illum_sim_1_1_spacecraft.html#a1507add3ff9a8778ef2520ce0959e0da" title="MoonIllumSim.Spacecraft.setEpoch" alt="" coords="669,157,899,184"/>
<area shape="rect" id="node15" href="$class_moon_illum_sim_1_1_spacecraft.html#a3c2ac321b1ec3ba5f676ed65bb0c3ced" title="MoonIllumSim.Spacecraft.setKeplerOrbitParameters" alt="" coords="622,208,946,235"/>
<area shape="rect" id="node17" href="$class_moon_illum_sim_1_1_spacecraft.html#ac7f058ff16ae1ecdefbcbdce7697f984" title="MoonIllumSim.Spacecraft.setStateVectors" alt="" coords="650,259,918,285"/>
<area shape="rect" id="node19" href="$class_moon_illum_sim_1_1_simulation.html#ac836658dc5d0ec3be51da14542ff7f4c" title="MoonIllumSim.Simulation.setPatternRepoPath" alt="" coords="639,309,929,336"/>
<area shape="rect" id="node21" href="$class_moon_illum_sim_1_1_simulation.html#ab8a4f9d616db33314b971e7efdb64e1d" title="MoonIllumSim.Simulation.setPOVPath" alt="" coords="661,360,907,387"/>
<area shape="rect" id="node23" href="$class_moon_illum_sim_1_1_simulation.html#a33fdbdb05fdd0b27d729f2a71588ff30" title="MoonIllumSim.Simulation.setOutputPath" alt="" coords="655,411,913,437"/>
<area shape="rect" id="node25" href="$class_moon_illum_sim_1_1_simulation.html#adb205c344cb19666e40b25222a27815c" title="MoonIllumSim.Simulation.setFOV" alt="" coords="675,461,893,488"/>
<area shape="rect" id="node27" href="$class_moon_illum_sim_1_1_spacecraft.html#a9a8d31594e164fb79a8fd57472ac7457" title="MoonIllumSim.Spacecraft.setOrientation" alt="" coords="1014,639,1269,665"/>
<area shape="rect" id="node29" href="$class_moon_illum_sim_1_1_spacecraft.html#a182379bbd2c84b6a173769cc3b91e442" title="MoonIllumSim.Spacecraft.setOrientationTransition" alt="" coords="629,563,939,589"/>
<area shape="rect" id="node31" href="$class_moon_illum_sim_1_1_simulation.html#ac22981372ce1dbe55b2349da2061fabb" title="MoonIllumSim.Simulation.setWidth" alt="" coords="671,613,897,640"/>
<area shape="rect" id="node33" href="$class_moon_illum_sim_1_1_simulation.html#a26ad900f6c103ecb378e7fd6fc427aa9" title="MoonIllumSim.Simulation.setHeight" alt="" coords="670,664,898,691"/>
<area shape="rect" id="node35" href="$class_moon_illum_sim_1_1_simulation.html#a8a1eb8c98658cfc41283cfbf14effa69" title="MoonIllumSim.Simulation.setRes" alt="" coords="677,715,891,741"/>
<area shape="rect" id="node37" href="$class_moon_illum_sim_1_1_simulation.html#abc52e7be5de57ce92bb84a212aca90de" title="MoonIllumSim.Simulation.setBatchSet" alt="" coords="661,765,907,792"/>
<area shape="rect" id="node42" href="$class_moon_illum_sim_1_1_simulation.html#ad969964a75f2355111fda979cf8e7c4e" title="MoonIllumSim.Simulation.getOutputPath" alt="" coords="655,816,913,843"/>
<area shape="rect" id="node48" href="$class_moon_illum_sim_1_1_spacecraft.html#a6ea27428ef4cb4372377409eb87aad07" title="MoonIllumSim.Spacecraft.getEpoch" alt="" coords="669,867,899,893"/>
<area shape="rect" id="node50" href="$class_moon_illum_sim_1_1_spacecraft.html#a23c8cd11493576a8f8d6193864b84f04" title="MoonIllumSim.Spacecraft.getEpochAsUTCString" alt="" coords="632,917,936,944"/>
<area shape="rect" id="node52" href="$class_moon_illum_sim_1_1_spacecraft.html#af16a6e7fd5935b5b2b2b1541549ac48b" title="MoonIllumSim.Spacecraft.getSemiMajorAxis" alt="" coords="644,968,924,995"/>
<area shape="rect" id="node54" href="$class_moon_illum_sim_1_1_spacecraft.html#a2256946fb3d51da8e088f7448d99a9bf" title="MoonIllumSim.Spacecraft.getEccentricity" alt="" coords="653,1019,915,1045"/>
<area shape="rect" id="node56" href="$class_moon_illum_sim_1_1tools.html#af569647d872eb2cbb7f55b57dce1fc61" title="MoonIllumSim.tools.rad2deg" alt="" coords="691,1069,877,1096"/>
<area shape="rect" id="node58" href="$class_moon_illum_sim_1_1_spacecraft.html#ac4b34e17a4634041346568e0e7f5a67a" title="MoonIllumSim.Spacecraft.getArgumentOfPeriapsis" alt="" coords="627,1120,941,1147"/>
<area shape="rect" id="node60" href="$class_moon_illum_sim_1_1_spacecraft.html#a5ba5c614ae4fe54b66ff97c72d866523" title="MoonIllumSim.Spacecraft.getLongOfAscNode" alt="" coords="641,1171,927,1197"/>
<area shape="rect" id="node62" href="$class_moon_illum_sim_1_1_spacecraft.html#a82af95745020fbaf13be219a45bfa121" title="MoonIllumSim.Spacecraft.getInclination" alt="" coords="659,1221,909,1248"/>
<area shape="rect" id="node64" href="$class_moon_illum_sim_1_1_spacecraft.html#a815de2bb9f3af5c9adcbe1602ef1c4bf" title="MoonIllumSim.Spacecraft.getMeanAnomalyAtEpoch" alt="" coords="621,1272,947,1299"/>
<area shape="rect" id="node66" href="$class_moon_illum_sim_1_1_spacecraft.html#a0ee347888b1279d2acc3577276c7e9ec" title="MoonIllumSim.Spacecraft.isOrientationGiven" alt="" coords="645,1323,923,1349"/>
<area shape="rect" id="node68" href="$class_moon_illum_sim_1_1_spacecraft.html#a473675acbba070610b6bfe99d13b608d" title="MoonIllumSim.Spacecraft.getInitialOrientation" alt="" coords="641,1373,927,1400"/>
<area shape="rect" id="node70" href="$class_moon_illum_sim_1_1_quaternion.html#ab18c48034f080575fba268f8e6ea25ad" title="MoonIllumSim.Quaternion.r" alt="" coords="695,1424,873,1451"/>
<area shape="rect" id="node72" href="$class_moon_illum_sim_1_1_quaternion.html#a642544f49b27c250fbd85e8f8d93f22c" title="MoonIllumSim.Quaternion.v" alt="" coords="694,1475,874,1501"/>
<area shape="rect" id="node74" href="$class_moon_illum_sim_1_1_vector3_d.html#af338ec19c1668b164b97913b58de45c1" title="MoonIllumSim.Vector3D.x" alt="" coords="697,1525,871,1552"/>
<area shape="rect" id="node76" href="$class_moon_illum_sim_1_1_vector3_d.html#aae10713e427415f901fc9ca595a48e14" title="MoonIllumSim.Vector3D.y" alt="" coords="697,1576,871,1603"/>
<area shape="rect" id="node78" href="$class_moon_illum_sim_1_1_vector3_d.html#a04100b67a9c06e8f0268d7e509895555" title="MoonIllumSim.Vector3D.z" alt="" coords="697,1627,871,1653"/>
<area shape="rect" id="node80" href="$class_moon_illum_sim_1_1_spacecraft.html#ab241e3ee472d72d754348d8434353f06" title="MoonIllumSim.Spacecraft.getOrientationTransition" alt="" coords="629,1677,939,1704"/>
<area shape="rect" id="node82" href="$class_moon_illum_sim_1_1_simulation.html#a1b54aed08c585d1d57f813baba45ad86" title="MoonIllumSim.Simulation.getSimulationTime" alt="" coords="644,2133,924,2160"/>
<area shape="rect" id="node84" href="$class_moon_illum_sim_1_1_simulation.html#a55cc196f2532bee57e95d90871a5c19e" title="MoonIllumSim.Simulation.getSimulationTimesAsUTCString" alt="" coords="603,1728,965,1755"/>
<area shape="rect" id="node86" href="$class_moon_illum_sim_1_1_simulation.html#ac82f305b8d1789be99cb77d189795bf9" title="MoonIllumSim.Simulation.getPatternRepoPath" alt="" coords="639,1779,929,1805"/>
<area shape="rect" id="node88" href="$class_moon_illum_sim_1_1_simulation.html#a117cdbc39982d4410cb7131115a44e0a" title="MoonIllumSim.Simulation.getPOVPath" alt="" coords="661,1829,907,1856"/>
<area shape="rect" id="node91" href="$class_moon_illum_sim_1_1_simulation.html#a2f5b36b64fa30657fe477880a3314e4d" title="MoonIllumSim.Simulation.getFOV" alt="" coords="675,1880,893,1907"/>
<area shape="rect" id="node93" href="$class_moon_illum_sim_1_1_simulation.html#a547ce9b6da43672149e779c8231c031c" title="MoonIllumSim.Simulation.getWidth" alt="" coords="671,1931,897,1957"/>
<area shape="rect" id="node95" href="$class_moon_illum_sim_1_1_simulation.html#a437c650f9b49fcf58c90cc873828ebdf" title="MoonIllumSim.Simulation.getHeight" alt="" coords="670,1981,898,2008"/>
<area shape="rect" id="node97" href="$class_moon_illum_sim_1_1_simulation.html#a2bfc3728addfa3f308785318bb4d71a7" title="MoonIllumSim.Simulation.getRes" alt="" coords="677,2032,891,2059"/>
<area shape="rect" id="node99" href="$class_moon_illum_sim_1_1tools.html#a3e85d1bbb9c28c6818001c03e2c76ffd" title="MoonIllumSim.tools.getSPICEVersion" alt="" coords="663,2083,905,2109"/>
</map>
